[
    {
        "Altitude(m)": 574218.8524043962,
        "Argument of Periapsis(deg)": -0.022603160782972403,
        "Eccentricity": 0.0,
        "Inclination(deg)": 97.0,
        "Latitude(deg)": 62.92466827746163,
        "Longitude(deg)": -148.52385913874298,
        "Mean Anomaly(deg)": 116.34184326918746,
        "RAAN(deg)": 120.0059470536185,
        "Satellite Name": "Starlink Shell 3 1829",
        "Satellite Number": 1829,
        "Semi-Major Axis(m)": 6938478.169268562,
        "Time(s)": 570
    },
    {
        "Altitude(m)": 574098.4677710276,
        "Argument of Periapsis(deg)": -0.02299970746337543,
        "Eccentricity": 0.0,
        "Inclination(deg)": 97.0,
        "Latitude(deg)": 62.322821496391285,
        "Longitude(deg)": -148.92325256952952,
        "Mean Anomaly(deg)": 116.96731946689256,
        "RAAN(deg)": 120.00605138789251,
        "Satellite Name": "Starlink Shell 3 1829",
        "Satellite Number": 1829,
        "Semi-Major Axis(m)": 6938478.169268562,
        "Time(s)": 580
    },
    {
        "Altitude(m)": 573976.3463783145,
        "Argument of Periapsis(deg)": -0.023396254143778456,
        "Eccentricity": 0.0,
        "Inclination(deg)": 97.0,
        "Latitude(deg)": 61.720031726191294,
        "Longitude(deg)": -149.30862242126778,
        "Mean Anomaly(deg)": 117.59279566459756,
        "RAAN(deg)": 120.00615572216651,
        "Satellite Name": "Starlink Shell 3 1829",
        "Satellite Number": 1829,
        "Semi-Major Axis(m)": 6938478.169268562,
        "Time(s)": 590
    },
    {
        "Altitude(m)": 573852.5592870093,
        "Argument of Periapsis(deg)": -0.023792800824181483,
        "Eccentricity": 0.0,
        "Inclination(deg)": 97.0,
        "Latitude(deg)": 61.11635335512465,
        "Longitude(deg)": -149.6808316776234,
        "Mean Anomaly(deg)": 118.2182718623026,
        "RAAN(deg)": 120.00626005644054,
        "Satellite Name": "Starlink Shell 3 1829",
        "Satellite Number": 1829,
        "Semi-Major Axis(m)": 6938478.169268562,
        "Time(s)": 600
    },
    {
        "Altitude(m)": 573727.1786447603,
        "Argument of Periapsis(deg)": -0.024189347504584503,
        "Eccentricity": 0.0,
        "Inclination(deg)": 97.0,
        "Latitude(deg)": 60.51183635994505,
        "Longitude(deg)": -150.04067594641836,
        "Mean Anomaly(deg)": 118.84374806000771,
        "RAAN(deg)": 120.00636439071454,
        "Satellite Name": "Starlink Shell 3 1829",
        "Satellite Number": 1829,
        "Semi-Major Axis(m)": 6938478.169268562,
        "Time(s)": 610
    },
    {
        "Altitude(m)": 573600.2776511709,
        "Argument of Periapsis(deg)": -0.02458589418498753,
        "Eccentricity": 0.0,
        "Inclination(deg)": 97.0,
        "Latitude(deg)": 59.906526737887674,
        "Longitude(deg)": -150.38888927537351,
        "Mean Anomaly(deg)": 119.4692242577127,
        "RAAN(deg)": 120.00646872498855,
        "Satellite Name": "Starlink Shell 3 1829",
        "Satellite Number": 1829,
        "Semi-Major Axis(m)": 6938478.169268562,
        "Time(s)": 620
    },
    {
        "Altitude(m)": 573471.9305222762,
        "Argument of Periapsis(deg)": -0.024982440865390556,
        "Eccentricity": 0.0,
        "Inclination(deg)": 97.0,
        "Latitude(deg)": 59.300466890101504,
        "Longitude(deg)": -150.726150967763,
        "Mean Anomaly(deg)": 120.09470045541774,
        "RAAN(deg)": 120.00657305926255,
        "Satellite Name": "Starlink Shell 3 1829",
        "Satellite Number": 1829,
        "Semi-Major Axis(m)": 6938478.169268562,
        "Time(s)": 630
    },
    {
        "Altitude(m)": 573342.2124545288,
        "Argument of Periapsis(deg)": -0.025378987545793576,
        "Eccentricity": 0.0,
        "Inclination(deg)": 97.0,
        "Latitude(deg)": 58.6936959626716,
        "Longitude(deg)": -151.053089277371,
        "Mean Anomaly(deg)": 120.72017665312278,
        "RAAN(deg)": 120.00667739353658,
        "Satellite Name": "Starlink Shell 3 1829",
        "Satellite Number": 1829,
        "Semi-Major Axis(m)": 6938478.169268562,
        "Time(s)": 640
    },
    {
        "Altitude(m)": 573211.1995881913,
        "Argument of Periapsis(deg)": -0.025775534226196602,
        "Eccentricity": 0.0,
        "Inclination(deg)": 97.0,
        "Latitude(deg)": 58.08625015053228,
        "Longitude(deg)": -151.3702870967841,
        "Mean Anomaly(deg)": 121.3456528508278,
        "RAAN(deg)": 120.00678172781056,
        "Satellite Name": "Starlink Shell 3 1829",
        "Satellite Number": 1829,
        "Semi-Major Axis(m)": 6938478.169268562,
        "Time(s)": 650
    },
    {
        "Altitude(m)": 573078.9689702591,
        "Argument of Periapsis(deg)": -0.026172080906599626,
        "Eccentricity": 0.0,
        "Inclination(deg)": 97.0,
        "Latitude(deg)": 57.47816296882931,
        "Longitude(deg)": -151.67828549852035,
        "Mean Anomaly(deg)": 121.9711290485329,
        "RAAN(deg)": 120.00688606208458,
        "Satellite Name": "Starlink Shell 3 1829",
        "Satellite Number": 1829,
        "Semi-Major Axis(m)": 6938478.169268562,
        "Time(s)": 660
    },
    {
        "Altitude(m)": 572945.5985168633,
        "Argument of Periapsis(deg)": -0.026568627587002652,
        "Eccentricity": 0.0,
        "Inclination(deg)": 97.0,
        "Latitude(deg)": 56.86946549567569,
        "Longitude(deg)": -151.9775868639559,
        "Mean Anomaly(deg)": 122.59660524623794,
        "RAAN(deg)": 120.00699039635857,
        "Satellite Name": "Starlink Shell 3 1829",
        "Satellite Number": 1829,
        "Semi-Major Axis(m)": 6938478.169268562,
        "Time(s)": 670
    },
    {
        "Altitude(m)": 572811.1669752024,
        "Argument of Periapsis(deg)": -0.02696517426740568,
        "Eccentricity": 0.0,
        "Inclination(deg)": 97.0,
        "Latitude(deg)": 56.260186589717385,
        "Longitude(deg)": -152.2686591600658,
        "Mean Anomaly(deg)": 123.22208144394295,
        "RAAN(deg)": 120.0070947306326,
        "Satellite Name": "Starlink Shell 3 1829",
        "Satellite Number": 1829,
        "Semi-Major Axis(m)": 6938478.169268562,
        "Time(s)": 680
    },
    {
        "Altitude(m)": 572675.7538849957,
        "Argument of Periapsis(deg)": -0.0273617209478087,
        "Eccentricity": 0.0,
        "Inclination(deg)": 97.0,
        "Latitude(deg)": 55.65035308546632,
        "Longitude(deg)": -152.55193837946817,
        "Mean Anomaly(deg)": 123.84755764164804,
        "RAAN(deg)": 120.0071990649066,
        "Satellite Name": "Starlink Shell 3 1829",
        "Satellite Number": 1829,
        "Semi-Major Axis(m)": 6938478.169268562,
        "Time(s)": 690
    },
    {
        "Altitude(m)": 572539.4395395014,
        "Argument of Periapsis(deg)": -0.027758267628211725,
        "Eccentricity": 0.0,
        "Inclination(deg)": 97.0,
        "Latitude(deg)": 55.03998996897916,
        "Longitude(deg)": -152.8278306927571,
        "Mean Anomaly(deg)": 124.47303383935304,
        "RAAN(deg)": 120.00730339918061,
        "Satellite Name": "Starlink Shell 3 1829",
        "Satellite Number": 1829,
        "Semi-Major Axis(m)": 6938478.169268562,
        "Time(s)": 700
    },
    {
        "Altitude(m)": 572402.3049460755,
        "Argument of Periapsis(deg)": -0.028154814308614752,
        "Eccentricity": 0.0,
        "Inclination(deg)": 97.0,
        "Latitude(deg)": 54.42912053612632,
        "Longitude(deg)": -153.09671585768203,
        "Mean Anomaly(deg)": 125.09851003705812,
        "RAAN(deg)": 120.00740773345464,
        "Satellite Name": "Starlink Shell 3 1829",
        "Satellite Number": 1829,
        "Semi-Major Axis(m)": 6938478.169268562,
        "Time(s)": 710
    },
    {
        "Altitude(m)": 572264.4317863681,
        "Argument of Periapsis(deg)": -0.02855136098901778,
        "Eccentricity": 0.0,
        "Inclination(deg)": 97.0,
        "Latitude(deg)": 53.81776653540889,
        "Longitude(deg)": -153.35894888726543,
        "Mean Anomaly(deg)": 125.72398623476317,
        "RAAN(deg)": 120.00751206772864,
        "Satellite Name": "Starlink Shell 3 1829",
        "Satellite Number": 1829,
        "Semi-Major Axis(m)": 6938478.169268562,
        "Time(s)": 720
    },
    {
        "Altitude(m)": 572125.902376052,
        "Argument of Periapsis(deg)": -0.028947907669420805,
        "Eccentricity": 0.0,
        "Inclination(deg)": 97.0,
        "Latitude(deg)": 53.20594829703554,
        "Longitude(deg)": -153.61486151423293,
        "Mean Anomaly(deg)": 126.34946243246817,
        "RAAN(deg)": 120.00761640200265,
        "Satellite Name": "Starlink Shell 3 1829",
        "Satellite Number": 1829,
        "Semi-Major Axis(m)": 6938478.169268562,
        "Time(s)": 730
    },
    {
        "Altitude(m)": 571986.7996242325,
        "Argument of Periapsis(deg)": -0.029344454349823825,
        "Eccentricity": 0.0,
        "Inclination(deg)": 97.0,
        "Latitude(deg)": 52.593684849767605,
        "Longitude(deg)": -153.86476498621923,
        "Mean Anomaly(deg)": 126.97493863017327,
        "RAAN(deg)": 120.00772073627665,
        "Satellite Name": "Starlink Shell 3 1829",
        "Satellite Number": 1829,
        "Semi-Major Axis(m)": 6938478.169268562,
        "Time(s)": 740
    },
    {
        "Altitude(m)": 571847.206992458,
        "Argument of Periapsis(deg)": -0.029741001030226845,
        "Eccentricity": 0.0,
        "Inclination(deg)": 97.0,
        "Latitude(deg)": 51.98099402684475,
        "Longitude(deg)": -154.10895118506812,
        "Mean Anomaly(deg)": 127.60041482787827,
        "RAAN(deg)": 120.00782507055068,
        "Satellite Name": "Starlink Shell 3 1829",
        "Satellite Number": 1829,
        "Semi-Major Axis(m)": 6938478.169268562,
        "Time(s)": 750
    }
]